VCC C                   
1 44430U 98067QQ  20091.73057367  .00021146  00000-0  29038-3 0  9994
2 44430  51.6413   3.3902 0003185  69.3108 290.8225 15.57267116 41237
VCC B                   
1 44431U 98067QR  20089.96317141  .00009263  00000-0  13841-3 0  9997
2 44431  51.6415  13.3331 0003480  55.0989 305.0329 15.55795017 42064
ATL-1                   
1 44830U 19084G   20091.68683257  .00061370  00000-0  46820-3 0  9998
2 44830  96.9879 320.4435 0033729 172.2961 187.8828 15.71241770 18211
SMOG-P                  
1 44832U 19084J   20091.72864462  .00063746  00000-0  47543-3 0  9996
2 44832  96.9881 320.5448 0033032 170.8841 189.3030 15.71800390 18221
DUCHIFAT-3              
1 44854U 19089C   20091.69485556  .00000390  00000-0  37992-4 0  9998
2 44854  36.9665 197.8707 0006732 156.6413 203.4633 14.99008494 16629
